{ "60549": {"name": "ICEYE-X40", "norad_id": "60549", "line1": "1 60549U 24149CK  26187.13972299  .00002044  00000+0  17790-3 0  9996", "line2": "2 60549  97.6789 263.3311 0004688  25.8667 334.2789 14.98025110102911", "country": "Finland", "operator": "ICEYE", "sensor": "SAR", "resolution_m": 3.0, "notes": "book:ICEYE-X(2-7,11-14,17-19,", "fetched_at": 1783341762.0583854, "stale": false}, "62384": {"name": "ICEYE-X49", "norad_id": "62384", "line1": "1 62384U 24247H   26186.91650400  .00004880  00000+0  28147-3 0  9994", "line2": "2 62384  44.9963 257.3687 0000930 234.0550 126.0242 15.13570308 85013", "country": "Finland", "operator": "ICEYE", "sensor": "SAR", "resolution_m": 3.0, "notes": "book:ICEYE-X(2-7,11-14,17-19,", "fetched_at": 1783341762.391728, "stale": false}, "62389": {"name": "ICEYE-X47", "norad_id": "62389", "line1": "1 62389U 24247N   26186.89172670  .00004155  00000+0  24258-3 0  9998", "line2": "2 62389  44.9955 257.0871 0002293 308.6005  51.4667 15.13457343 85013", "country": "Finland", "operator": "ICEYE", "sensor": "SAR", "resolution_m": 3.0, "notes": "book:ICEYE-X(2-7,11-14,17-19,", "fetched_at": 1783341762.7229958, "stale": false}, "62698": {"name": "ICEYE-X42", "norad_id": "62698", "line1": "1 62698U 25009CT  26187.18846929  .00002324  00000+0  23561-3 0  9998", "line2": "2 62698  97.7390 265.1614 0001336  89.6553 270.4819 14.91849824 80124", "country": "Finland", "operator": "ICEYE", "sensor": "SAR", "resolution_m": 3.0, "notes": "book:ICEYE-X(2-7,11-14,17-19,", "fetched_at": 1783341763.0622299, "stale": false}, "62700": {"name": "ICEYE-X41", "norad_id": "62700", "line1": "1 62700U 25009CV  26187.18936518  .00003229  00000+0  28649-3 0  9993", "line2": "2 62700  97.7069 266.4402 0001158  28.8276 331.3009 14.96885254 80253", "country": "Finland", "operator": "ICEYE", "sensor": "SAR", "resolution_m": 3.0, "notes": "book:ICEYE-X(2-7,11-14,17-19,", "fetched_at": 1783341763.4049196, "stale": false}, "62705": {"name": "ICEYE-X45", "norad_id": "62705", "line1": "1 62705U 25009DA  26187.19733039 -.00000737  00000+0 -53192-4 0  9997", "line2": "2 62705  97.8372 274.0390 0001524  62.8271 297.3108 15.00849495 80532", "country": "Finland", "operator": "ICEYE", "sensor": "SAR", "resolution_m": 3.0, "notes": "book:ICEYE-X(2-7,11-14,17-19,", "fetched_at": 1783341763.7339485, "stale": false}, "62707": {"name": "ICEYE-X44", "norad_id": "62707", "line1": "1 62707U 25009DC  26187.14714023  .00003327  00000+0  30073-3 0  9994", "line2": "2 62707  97.7044 265.9740 0002389  85.7348 274.4146 14.96130047102775", "country": "Finland", "operator": "ICEYE", "sensor": "SAR", "resolution_m": 3.0, "notes": "book:ICEYE-X(2-7,11-14,17-19,", "fetched_at": 1783341764.0602353, "stale": false}, "63253": {"name": "ICEYE-X48", "norad_id": "63253", "line1": "1 63253U 25052AV  26187.16003639  .00003032  00000+0  26108-3 0  9992", "line2": "2 63253  97.6839  79.0569 0002914 125.3293 234.8202 14.98093907 71515", "country": "Finland", "operator": "ICEYE", "sensor": "SAR", "resolution_m": 3.0, "notes": "book:ICEYE-X(2-7,11-14,17-19,", "fetched_at": 1783341764.3968577, "stale": false}, "63255": {"name": "ICEYE-X50", "norad_id": "63255", "line1": "1 63255U 25052AX  26187.29619014  .00001690  00000+0  15837-3 0  9993", "line2": "2 63255  97.6861  78.8229 0002971 121.1785 238.9728 14.95341874 71508", "country": "Finland", "operator": "ICEYE", "sensor": "SAR", "resolution_m": 3.0, "notes": "book:ICEYE-X(2-7,11-14,17-19,", "fetched_at": 1783341764.7320187, "stale": false}, "63257": {"name": "ICEYE-X51", "norad_id": "63257", "line1": "1 63257U 25052AZ  26187.19184230  .00003529  00000+0  28199-3 0  9999", "line2": "2 63257  97.7588  82.2506 0002021  69.9704 290.1737 15.00892807 71650", "country": "Finland", "operator": "ICEYE", "sensor": "SAR", "resolution_m": 3.0, "notes": "book:ICEYE-X(2-7,11-14,17-19,", "fetched_at": 1783341765.0646284, "stale": false}, "63258": {"name": "ICEYE-X46", "norad_id": "63258", "line1": "1 63258U 25052BA  26187.15908745  .00001979  00000+0  18462-3 0  9990", "line2": "2 63258  97.6862  78.6872 0001473  83.6819 276.4569 14.95341240 71484", "country": "Finland", "operator": "ICEYE", "sensor": "SAR", "resolution_m": 3.0, "notes": "book:ICEYE-X(2-7,11-14,17-19,", "fetched_at": 1783341765.5566175, "stale": false}, "64570": {"name": "ICEYE-X54", "norad_id": "64570", "line1": "1 64570U 25135AU  26187.30568846  .00002670  00000+0  25142-3 0  9993", "line2": "2 64570  97.7735 301.5447 0001405 222.8461 137.2650 14.94697508 56751", "country": "Finland", "operator": "ICEYE", "sensor": "SAR", "resolution_m": 3.0, "notes": "book:ICEYE-X(2-7,11-14,17-19,", "fetched_at": 1783341766.0415568, "stale": false}, "64572": {"name": "ICEYE-X52", "norad_id": "64572", "line1": "1 64572U 25135AW  26187.29716127  .00001341  00000+0  13238-3 0  9997", "line2": "2 64572  97.7761 301.3377 0000598 248.4532 111.6624 14.93631062 56734", "country": "Finland", "operator": "ICEYE", "sensor": "SAR", "resolution_m": 3.0, "notes": "book:ICEYE-X(2-7,11-14,17-19,", "fetched_at": 1783341766.39141, "stale": false}, "64574": {"name": "ICEYE-X56", "norad_id": "64574", "line1": "1 64574U 25135AY  26187.29922720  .00002429  00000+0  22325-3 0  9992", "line2": "2 64574  97.7759 302.1100 0000782 258.0951 102.0182 14.95727593 56788", "country": "Finland", "operator": "ICEYE", "sensor": "SAR", "resolution_m": 3.0, "notes": "book:ICEYE-X(2-7,11-14,17-19,", "fetched_at": 1783341766.7268882, "stale": false}, "64578": {"name": "ICEYE-X57", "norad_id": "64578", "line1": "1 64578U 25135BC  26187.33420704  .00003942  00000+0  31456-3 0  9992", "line2": "2 64578  97.7999 303.8570 0002105  59.8613 300.2819 15.00878508 56891", "country": "Finland", "operator": "ICEYE", "sensor": "SAR", "resolution_m": 3.0, "notes": "book:ICEYE-X(2-7,11-14,17-19,", "fetched_at": 1783341767.0778918, "stale": false}, "64581": {"name": "ICEYE-X55", "norad_id": "64581", "line1": "1 64581U 25135BF  26187.30430784  .00002558  00000+0  23729-3 0  9998", "line2": "2 64581  97.7756 301.9462 0001934 288.5602  71.5409 14.95324879 56773", "country": "Finland", "operator": "ICEYE", "sensor": "SAR", "resolution_m": 3.0, "notes": "book:ICEYE-X(2-7,11-14,17-19,", "fetched_at": 1783341767.424741, "stale": false}}