{"fetched_at":"2026-07-06T18:35:38.131Z","source":"https://celestrak.org/NORAD/elements/gp.php?NAME=ICEYE&FORMAT=JSON","constellation":"iceye","records":[{"OBJECT_NAME":"ICEYE-X40","OBJECT_ID":"2024-149CK","EPOCH":"2026-07-06T03:21:12.066336","CLASSIFICATION_TYPE":"U","MEAN_MOTION":14.9802511,"ECCENTRICITY":0.00046887,"INCLINATION":97.6789,"RA_OF_ASC_NODE":263.3311,"ARG_OF_PERICENTER":25.8667,"MEAN_ANOMALY":334.2789,"EPHEMERIS_TYPE":0,"NORAD_CAT_ID":60549,"ELEMENT_SET_NO":999,"REV_AT_EPOCH":10291,"BSTAR":0.00017789925,"MEAN_MOTION_DOT":0.00002044,"MEAN_MOTION_DDOT":0},{"OBJECT_NAME":"ICEYE-X49","OBJECT_ID":"2024-247H","EPOCH":"2026-07-05T21:59:45.945600","CLASSIFICATION_TYPE":"U","MEAN_MOTION":15.13570308,"ECCENTRICITY":0.00009305,"INCLINATION":44.9963,"RA_OF_ASC_NODE":257.3687,"ARG_OF_PERICENTER":234.055,"MEAN_ANOMALY":126.0242,"EPHEMERIS_TYPE":0,"NORAD_CAT_ID":62384,"ELEMENT_SET_NO":999,"REV_AT_EPOCH":8501,"BSTAR":0.00028146706,"MEAN_MOTION_DOT":0.0000488,"MEAN_MOTION_DDOT":0},{"OBJECT_NAME":"ICEYE-X47","OBJECT_ID":"2024-247N","EPOCH":"2026-07-05T21:24:05.186880","CLASSIFICATION_TYPE":"U","MEAN_MOTION":15.13457343,"ECCENTRICITY":0.00022932,"INCLINATION":44.9955,"RA_OF_ASC_NODE":257.0871,"ARG_OF_PERICENTER":308.6005,"MEAN_ANOMALY":51.4667,"EPHEMERIS_TYPE":0,"NORAD_CAT_ID":62389,"ELEMENT_SET_NO":999,"REV_AT_EPOCH":8501,"BSTAR":0.00024257567,"MEAN_MOTION_DOT":0.00004155,"MEAN_MOTION_DDOT":0},{"OBJECT_NAME":"ICEYE-X42","OBJECT_ID":"2025-009CT","EPOCH":"2026-07-06T04:31:23.746656","CLASSIFICATION_TYPE":"U","MEAN_MOTION":14.91849824,"ECCENTRICITY":0.0001336,"INCLINATION":97.739,"RA_OF_ASC_NODE":265.1614,"ARG_OF_PERICENTER":89.6553,"MEAN_ANOMALY":270.4819,"EPHEMERIS_TYPE":0,"NORAD_CAT_ID":62698,"ELEMENT_SET_NO":999,"REV_AT_EPOCH":8012,"BSTAR":0.00023561025,"MEAN_MOTION_DOT":0.00002324,"MEAN_MOTION_DDOT":0},{"OBJECT_NAME":"ICEYE-X41","OBJECT_ID":"2025-009CV","EPOCH":"2026-07-06T04:32:41.151552","CLASSIFICATION_TYPE":"U","MEAN_MOTION":14.96885254,"ECCENTRICITY":0.00011586,"INCLINATION":97.7069,"RA_OF_ASC_NODE":266.4402,"ARG_OF_PERICENTER":28.8276,"MEAN_ANOMALY":331.3009,"EPHEMERIS_TYPE":0,"NORAD_CAT_ID":62700,"ELEMENT_SET_NO":999,"REV_AT_EPOCH":8025,"BSTAR":0.00028649106,"MEAN_MOTION_DOT":0.00003229,"MEAN_MOTION_DDOT":0},{"OBJECT_NAME":"ICEYE-X45","OBJECT_ID":"2025-009DA","EPOCH":"2026-07-06T04:44:09.345696","CLASSIFICATION_TYPE":"U","MEAN_MOTION":15.00849495,"ECCENTRICITY":0.00015244,"INCLINATION":97.8372,"RA_OF_ASC_NODE":274.039,"ARG_OF_PERICENTER":62.8271,"MEAN_ANOMALY":297.3108,"EPHEMERIS_TYPE":0,"NORAD_CAT_ID":62705,"ELEMENT_SET_NO":999,"REV_AT_EPOCH":8053,"BSTAR":-0.000053191593,"MEAN_MOTION_DOT":-0.00000737,"MEAN_MOTION_DDOT":0},{"OBJECT_NAME":"ICEYE-X44","OBJECT_ID":"2025-009DC","EPOCH":"2026-07-06T03:31:52.915872","CLASSIFICATION_TYPE":"U","MEAN_MOTION":14.96130047,"ECCENTRICITY":0.00023893,"INCLINATION":97.7044,"RA_OF_ASC_NODE":265.974,"ARG_OF_PERICENTER":85.7348,"MEAN_ANOMALY":274.4146,"EPHEMERIS_TYPE":0,"NORAD_CAT_ID":62707,"ELEMENT_SET_NO":999,"REV_AT_EPOCH":10277,"BSTAR":0.00030072858,"MEAN_MOTION_DOT":0.00003327,"MEAN_MOTION_DDOT":0},{"OBJECT_NAME":"ICEYE-X48","OBJECT_ID":"2025-052AV","EPOCH":"2026-07-06T03:50:27.144096","CLASSIFICATION_TYPE":"U","MEAN_MOTION":14.98093907,"ECCENTRICITY":0.00029141,"INCLINATION":97.6839,"RA_OF_ASC_NODE":79.0569,"ARG_OF_PERICENTER":125.3293,"MEAN_ANOMALY":234.8202,"EPHEMERIS_TYPE":0,"NORAD_CAT_ID":63253,"ELEMENT_SET_NO":999,"REV_AT_EPOCH":7151,"BSTAR":0.00026108404,"MEAN_MOTION_DOT":0.00003032,"MEAN_MOTION_DDOT":0},{"OBJECT_NAME":"ICEYE-X50","OBJECT_ID":"2025-052AX","EPOCH":"2026-07-06T07:06:30.828096","CLASSIFICATION_TYPE":"U","MEAN_MOTION":14.95341874,"ECCENTRICITY":0.00029719,"INCLINATION":97.6861,"RA_OF_ASC_NODE":78.8229,"ARG_OF_PERICENTER":121.1785,"MEAN_ANOMALY":238.9728,"EPHEMERIS_TYPE":0,"NORAD_CAT_ID":63255,"ELEMENT_SET_NO":999,"REV_AT_EPOCH":7150,"BSTAR":0.00015837196,"MEAN_MOTION_DOT":0.0000169,"MEAN_MOTION_DDOT":0},{"OBJECT_NAME":"ICEYE-X51","OBJECT_ID":"2025-052AZ","EPOCH":"2026-07-06T04:36:15.174720","CLASSIFICATION_TYPE":"U","MEAN_MOTION":15.00892807,"ECCENTRICITY":0.00020217,"INCLINATION":97.7588,"RA_OF_ASC_NODE":82.2506,"ARG_OF_PERICENTER":69.9704,"MEAN_ANOMALY":290.1737,"EPHEMERIS_TYPE":0,"NORAD_CAT_ID":63257,"ELEMENT_SET_NO":999,"REV_AT_EPOCH":7165,"BSTAR":0.0002819899,"MEAN_MOTION_DOT":0.00003529,"MEAN_MOTION_DDOT":0},{"OBJECT_NAME":"ICEYE-X46","OBJECT_ID":"2025-052BA","EPOCH":"2026-07-06T03:49:05.155680","CLASSIFICATION_TYPE":"U","MEAN_MOTION":14.9534124,"ECCENTRICITY":0.00014736,"INCLINATION":97.6862,"RA_OF_ASC_NODE":78.6872,"ARG_OF_PERICENTER":83.6819,"MEAN_ANOMALY":276.4569,"EPHEMERIS_TYPE":0,"NORAD_CAT_ID":63258,"ELEMENT_SET_NO":999,"REV_AT_EPOCH":7148,"BSTAR":0.00018461928,"MEAN_MOTION_DOT":0.00001979,"MEAN_MOTION_DDOT":0},{"OBJECT_NAME":"ICEYE-X54","OBJECT_ID":"2025-135AU","EPOCH":"2026-07-06T07:20:11.482944","CLASSIFICATION_TYPE":"U","MEAN_MOTION":14.94697508,"ECCENTRICITY":0.00014054,"INCLINATION":97.7735,"RA_OF_ASC_NODE":301.5447,"ARG_OF_PERICENTER":222.8461,"MEAN_ANOMALY":137.265,"EPHEMERIS_TYPE":0,"NORAD_CAT_ID":64570,"ELEMENT_SET_NO":999,"REV_AT_EPOCH":5675,"BSTAR":0.00025141522,"MEAN_MOTION_DOT":0.0000267,"MEAN_MOTION_DDOT":0},{"OBJECT_NAME":"ICEYE-X52","OBJECT_ID":"2025-135AW","EPOCH":"2026-07-06T07:07:54.733728","CLASSIFICATION_TYPE":"U","MEAN_MOTION":14.93631062,"ECCENTRICITY":0.00005988,"INCLINATION":97.7761,"RA_OF_ASC_NODE":301.3377,"ARG_OF_PERICENTER":248.4532,"MEAN_ANOMALY":111.6624,"EPHEMERIS_TYPE":0,"NORAD_CAT_ID":64572,"ELEMENT_SET_NO":999,"REV_AT_EPOCH":5673,"BSTAR":0.00013238255,"MEAN_MOTION_DOT":0.00001341,"MEAN_MOTION_DDOT":0},{"OBJECT_NAME":"ICEYE-X56","OBJECT_ID":"2025-135AY","EPOCH":"2026-07-06T07:10:53.230080","CLASSIFICATION_TYPE":"U","MEAN_MOTION":14.95727593,"ECCENTRICITY":0.00007827,"INCLINATION":97.7759,"RA_OF_ASC_NODE":302.11,"ARG_OF_PERICENTER":258.0951,"MEAN_ANOMALY":102.0182,"EPHEMERIS_TYPE":0,"NORAD_CAT_ID":64574,"ELEMENT_SET_NO":999,"REV_AT_EPOCH":5678,"BSTAR":0.00022324827,"MEAN_MOTION_DOT":0.00002429,"MEAN_MOTION_DDOT":0},{"OBJECT_NAME":"ICEYE-X57","OBJECT_ID":"2025-135BC","EPOCH":"2026-07-06T08:01:15.488256","CLASSIFICATION_TYPE":"U","MEAN_MOTION":15.00878508,"ECCENTRICITY":0.00021057,"INCLINATION":97.7999,"RA_OF_ASC_NODE":303.857,"ARG_OF_PERICENTER":59.8613,"MEAN_ANOMALY":300.2819,"EPHEMERIS_TYPE":0,"NORAD_CAT_ID":64578,"ELEMENT_SET_NO":999,"REV_AT_EPOCH":5689,"BSTAR":0.00031456159,"MEAN_MOTION_DOT":0.00003942,"MEAN_MOTION_DDOT":0},{"OBJECT_NAME":"ICEYE-X55","OBJECT_ID":"2025-135BF","EPOCH":"2026-07-06T07:18:12.197376","CLASSIFICATION_TYPE":"U","MEAN_MOTION":14.95324879,"ECCENTRICITY":0.0001934,"INCLINATION":97.7756,"RA_OF_ASC_NODE":301.9462,"ARG_OF_PERICENTER":288.5602,"MEAN_ANOMALY":71.5409,"EPHEMERIS_TYPE":0,"NORAD_CAT_ID":64581,"ELEMENT_SET_NO":999,"REV_AT_EPOCH":5677,"BSTAR":0.00023729448,"MEAN_MOTION_DOT":0.00002558,"MEAN_MOTION_DDOT":0}]}
